SL-14 R/B               
1 21423U 91042B   26031.88825065  .00000424  00000+0  50692-4 0  9997
2 21423  82.4907 254.7006 0017229   7.2468 352.8991 14.81793860847627
ERS-1                   
1 21574U 91050A   26031.99520894  .00000414  00000+0  14725-3 0  9992
2 21574  98.7895  49.3072 0031141 312.4727  47.3829 14.39417163810458
ARIANE 40 R/B           
1 21610U 91050F   26031.85599940  .00000363  00000+0  12119-3 0  9994
2 21610  98.2088  85.4610 0003355 165.2078 194.9212 14.42864412813686
INTERCOSMOS 25          
1 21819U 91086A   26031.83437167  .00001127  00000+0  21988-3 0  9997
2 21819  82.6092 332.2796 1486441 196.3435 158.4305 12.11900108492229
SL-8 R/B                
1 21876U 92008B   26031.85603484  .00000070  00000+0  56215-4 0  9992
2 21876  82.9278 295.1777 0033479 236.6127 193.2152 13.75968914704358
SL-8 R/B                
1 21938U 92020B   26031.89639015  .00000110  00000+0  98126-4 0  9990
2 21938  82.9318 181.0719 0029746  42.5403  69.5083 13.75543296696073
USA 81                  
1 21949U 92023A   26031.84360463  .00000233  00000+0  79057-4 0  9996
2 21949  85.0118 152.6853 0002383 109.9348 250.2102 14.32352951 89510
COSMOS 2219             
1 22219U 92076A   26031.59548108 -.00000239  00000+0 -10036-3 0  9990
2 22219  71.0596  95.6173 0020681 258.5420 101.3380 14.14078638713133
SL-16 R/B               
1 22220U 92076B   26031.90421986  .00000235  00000+0  14078-3 0  9995
2 22220  70.9986 265.8632 0012022 160.8328 210.2342 14.16851557716625
COSMOS 2221             
1 22236U 92080A   26031.85275789  .00002670  00000+0  23522-3 0  9998
2 22236  82.5068 314.3562 0013496 322.8242  37.2044 14.96041404775288
SL-16 R/B               
1 22285U 92093B   26031.84961946 -.00000200  00000+0 -78182-4 0  9994
2 22285  71.0210  81.6063 0004913 332.4288  27.6573 14.15442831707943
COSMOS 2228             
1 22286U 92094A   26031.89316747  .00001908  00000+0  16287-3 0  9995
2 22286  82.5171 272.5445 0019490  67.3502 292.9779 14.97018082770550
