CCSDS_OMM_VERS = 2.0
CREATION_DATE  = 
ORIGINATOR     = 

OBJECT_NAME    = SL-14 R/B
OBJECT_ID      = 1991-042B
CENTER_NAME    = EARTH
REF_FRAME      = TEME
TIME_SYSTEM    = UTC
MEAN_ELEMENT_THEORY = SGP/SGP4

EPOCH          = 2026-01-31T21:19:04.856160
MEAN_MOTION    = 14.81793860
ECCENTRICITY   = .00172292
INCLINATION    = 82.4907
RA_OF_ASC_NODE = 254.7006
ARG_OF_PERICENTER = 7.2468
MEAN_ANOMALY   = 352.8991

EPHEMERIS_TYPE = 0
CLASSIFICATION_TYPE = U
NORAD_CAT_ID   = 21423
ELEMENT_SET_NO = 999
REV_AT_EPOCH   = 84762
BSTAR          = .50692391E-4
MEAN_MOTION_DOT = .424E-5
MEAN_MOTION_DDOT = 0

CCSDS_OMM_VERS = 2.0
CREATION_DATE  = 
ORIGINATOR     = 

OBJECT_NAME    = ERS-1
OBJECT_ID      = 1991-050A
CENTER_NAME    = EARTH
REF_FRAME      = TEME
TIME_SYSTEM    = UTC
MEAN_ELEMENT_THEORY = SGP/SGP4

EPOCH          = 2026-01-31T23:53:06.052416
MEAN_MOTION    = 14.39417163
ECCENTRICITY   = .00311419
INCLINATION    = 98.7895
RA_OF_ASC_NODE = 49.3072
ARG_OF_PERICENTER = 312.4727
MEAN_ANOMALY   = 47.3829

EPHEMERIS_TYPE = 0
CLASSIFICATION_TYPE = U
NORAD_CAT_ID   = 21574
ELEMENT_SET_NO = 999
REV_AT_EPOCH   = 81045
BSTAR          = .1472524E-3
MEAN_MOTION_DOT = .414E-5
MEAN_MOTION_DDOT = 0

CCSDS_OMM_VERS = 2.0
CREATION_DATE  = 
ORIGINATOR     = 

OBJECT_NAME    = ARIANE 40 R/B
OBJECT_ID      = 1991-050F
CENTER_NAME    = EARTH
REF_FRAME      = TEME
TIME_SYSTEM    = UTC
MEAN_ELEMENT_THEORY = SGP/SGP4

EPOCH          = 2026-01-31T20:32:38.348160
MEAN_MOTION    = 14.42864412
ECCENTRICITY   = .00033555
INCLINATION    = 98.2088
RA_OF_ASC_NODE = 85.4610
ARG_OF_PERICENTER = 165.2078
MEAN_ANOMALY   = 194.9212

EPHEMERIS_TYPE = 0
CLASSIFICATION_TYPE = U
NORAD_CAT_ID   = 21610
ELEMENT_SET_NO = 999
REV_AT_EPOCH   = 81368
BSTAR          = .12119059E-3
MEAN_MOTION_DOT = .363E-5
MEAN_MOTION_DDOT = 0

CCSDS_OMM_VERS = 2.0
CREATION_DATE  = 
ORIGINATOR     = 

OBJECT_NAME    = INTERCOSMOS 25
OBJECT_ID      = 1991-086A
CENTER_NAME    = EARTH
REF_FRAME      = TEME
TIME_SYSTEM    = UTC
MEAN_ELEMENT_THEORY = SGP/SGP4

EPOCH          = 2026-01-31T20:01:29.712288
MEAN_MOTION    = 12.11900108
ECCENTRICITY   = .14864416
INCLINATION    = 82.6092
RA_OF_ASC_NODE = 332.2796
ARG_OF_PERICENTER = 196.3435
MEAN_ANOMALY   = 158.4305

EPHEMERIS_TYPE = 0
CLASSIFICATION_TYPE = U
NORAD_CAT_ID   = 21819
ELEMENT_SET_NO = 999
REV_AT_EPOCH   = 49222
BSTAR          = .21987687E-3
MEAN_MOTION_DOT = .1127E-4
MEAN_MOTION_DDOT = 0

CCSDS_OMM_VERS = 2.0
CREATION_DATE  = 
ORIGINATOR     = 

OBJECT_NAME    = SL-8 R/B
OBJECT_ID      = 1992-008B
CENTER_NAME    = EARTH
REF_FRAME      = TEME
TIME_SYSTEM    = UTC
MEAN_ELEMENT_THEORY = SGP/SGP4

EPOCH          = 2026-01-31T20:32:41.410176
MEAN_MOTION    = 13.75968914
ECCENTRICITY   = .00334798
INCLINATION    = 82.9278
RA_OF_ASC_NODE = 295.1777
ARG_OF_PERICENTER = 236.6127
MEAN_ANOMALY   = 193.2152

EPHEMERIS_TYPE = 0
CLASSIFICATION_TYPE = U
NORAD_CAT_ID   = 21876
ELEMENT_SET_NO = 999
REV_AT_EPOCH   = 70435
BSTAR          = .562149E-4
MEAN_MOTION_DOT = .7E-6
MEAN_MOTION_DDOT = 0

CCSDS_OMM_VERS = 2.0
CREATION_DATE  = 
ORIGINATOR     = 

OBJECT_NAME    = SL-8 R/B
OBJECT_ID      = 1992-020B
CENTER_NAME    = EARTH
REF_FRAME      = TEME
TIME_SYSTEM    = UTC
MEAN_ELEMENT_THEORY = SGP/SGP4

EPOCH          = 2026-01-31T21:30:48.108960
MEAN_MOTION    = 13.75543296
ECCENTRICITY   = .0029746
INCLINATION    = 82.9318
RA_OF_ASC_NODE = 181.0719
ARG_OF_PERICENTER = 42.5403
MEAN_ANOMALY   = 69.5083

EPHEMERIS_TYPE = 0
CLASSIFICATION_TYPE = U
NORAD_CAT_ID   = 21938
ELEMENT_SET_NO = 999
REV_AT_EPOCH   = 69607
BSTAR          = .98125801E-4
MEAN_MOTION_DOT = .11E-5
MEAN_MOTION_DDOT = 0

CCSDS_OMM_VERS = 2.0
CREATION_DATE  = 
ORIGINATOR     = 

OBJECT_NAME    = USA 81
OBJECT_ID      = 1992-023A
CENTER_NAME    = EARTH
REF_FRAME      = TEME
TIME_SYSTEM    = UTC
MEAN_ELEMENT_THEORY = SGP/SGP4

EPOCH          = 2026-01-31T20:14:47.440032
MEAN_MOTION    = 14.32352951
ECCENTRICITY   = .00023839
INCLINATION    = 85.0118
RA_OF_ASC_NODE = 152.6853
ARG_OF_PERICENTER = 109.9348
MEAN_ANOMALY   = 250.2102

EPHEMERIS_TYPE = 0
CLASSIFICATION_TYPE = U
NORAD_CAT_ID   = 21949
ELEMENT_SET_NO = 999
REV_AT_EPOCH   = 8951
BSTAR          = .79056556E-4
MEAN_MOTION_DOT = .233E-5
MEAN_MOTION_DDOT = 0

CCSDS_OMM_VERS = 2.0
CREATION_DATE  = 
ORIGINATOR     = 

OBJECT_NAME    = COSMOS 2219
OBJECT_ID      = 1992-076A
CENTER_NAME    = EARTH
REF_FRAME      = TEME
TIME_SYSTEM    = UTC
MEAN_ELEMENT_THEORY = SGP/SGP4

EPOCH          = 2026-01-31T14:17:29.565312
MEAN_MOTION    = 14.14078638
ECCENTRICITY   = .00206817
INCLINATION    = 71.0596
RA_OF_ASC_NODE = 95.6173
ARG_OF_PERICENTER = 258.5420
MEAN_ANOMALY   = 101.3380

EPHEMERIS_TYPE = 0
CLASSIFICATION_TYPE = U
NORAD_CAT_ID   = 22219
ELEMENT_SET_NO = 999
REV_AT_EPOCH   = 71313
BSTAR          = -.10035966E-3
MEAN_MOTION_DOT = -.239E-5
MEAN_MOTION_DDOT = 0

CCSDS_OMM_VERS = 2.0
CREATION_DATE  = 
ORIGINATOR     = 

OBJECT_NAME    = SL-16 R/B
OBJECT_ID      = 1992-076B
CENTER_NAME    = EARTH
REF_FRAME      = TEME
TIME_SYSTEM    = UTC
MEAN_ELEMENT_THEORY = SGP/SGP4

EPOCH          = 2026-01-31T21:42:04.595904
MEAN_MOTION    = 14.16851557
ECCENTRICITY   = .00120222
INCLINATION    = 70.9986
RA_OF_ASC_NODE = 265.8632
ARG_OF_PERICENTER = 160.8328
MEAN_ANOMALY   = 210.2342

EPHEMERIS_TYPE = 0
CLASSIFICATION_TYPE = U
NORAD_CAT_ID   = 22220
ELEMENT_SET_NO = 999
REV_AT_EPOCH   = 71662
BSTAR          = .14077745E-3
MEAN_MOTION_DOT = .235E-5
MEAN_MOTION_DDOT = 0

CCSDS_OMM_VERS = 2.0
CREATION_DATE  = 
ORIGINATOR     = 

OBJECT_NAME    = COSMOS 2221
OBJECT_ID      = 1992-080A
CENTER_NAME    = EARTH
REF_FRAME      = TEME
TIME_SYSTEM    = UTC
MEAN_ELEMENT_THEORY = SGP/SGP4

EPOCH          = 2026-01-31T20:27:58.281696
MEAN_MOTION    = 14.96041404
ECCENTRICITY   = .00134968
INCLINATION    = 82.5068
RA_OF_ASC_NODE = 314.3562
ARG_OF_PERICENTER = 322.8242
MEAN_ANOMALY   = 37.2044

EPHEMERIS_TYPE = 0
CLASSIFICATION_TYPE = U
NORAD_CAT_ID   = 22236
ELEMENT_SET_NO = 999
REV_AT_EPOCH   = 77528
BSTAR          = .23522106E-3
MEAN_MOTION_DOT = .267E-4
MEAN_MOTION_DDOT = 0

CCSDS_OMM_VERS = 2.0
CREATION_DATE  = 
ORIGINATOR     = 

OBJECT_NAME    = SL-16 R/B
OBJECT_ID      = 1992-093B
CENTER_NAME    = EARTH
REF_FRAME      = TEME
TIME_SYSTEM    = UTC
MEAN_ELEMENT_THEORY = SGP/SGP4

EPOCH          = 2026-01-31T20:23:27.121344
MEAN_MOTION    = 14.15442831
ECCENTRICITY   = .00049132
INCLINATION    = 71.0210
RA_OF_ASC_NODE = 81.6063
ARG_OF_PERICENTER = 332.4288
MEAN_ANOMALY   = 27.6573

EPHEMERIS_TYPE = 0
CLASSIFICATION_TYPE = U
NORAD_CAT_ID   = 22285
ELEMENT_SET_NO = 999
REV_AT_EPOCH   = 70794
BSTAR          = -.7818186E-4
MEAN_MOTION_DOT = -.2E-5
MEAN_MOTION_DDOT = 0

CCSDS_OMM_VERS = 2.0
CREATION_DATE  = 
ORIGINATOR     = 

OBJECT_NAME    = COSMOS 2228
OBJECT_ID      = 1992-094A
CENTER_NAME    = EARTH
REF_FRAME      = TEME
TIME_SYSTEM    = UTC
MEAN_ELEMENT_THEORY = SGP/SGP4

EPOCH          = 2026-01-31T21:26:09.669408
MEAN_MOTION    = 14.97018082
ECCENTRICITY   = .00194904
INCLINATION    = 82.5171
RA_OF_ASC_NODE = 272.5445
ARG_OF_PERICENTER = 67.3502
MEAN_ANOMALY   = 292.9779

EPHEMERIS_TYPE = 0
CLASSIFICATION_TYPE = U
NORAD_CAT_ID   = 22286
ELEMENT_SET_NO = 999
REV_AT_EPOCH   = 77055
BSTAR          = .16287148E-3
MEAN_MOTION_DOT = .1908E-4
MEAN_MOTION_DDOT = 0

